ONEWEB-0156             
1 48052U 21025L   25248.89955963 -.00000005  00000+0 -47926-4 0  9992
2 48052  87.9025  16.6803 0001778 102.5639 257.5689 13.13468529216255
ONEWEB-0161             
1 48053U 21025M   25248.87416090  .00000163  00000+0  41104-3 0  9998
2 48053  87.9028  16.7048 0001768 103.9643 256.1682 13.13470421216184
ONEWEB-0158             
1 48054U 21025N   25248.90973110 -.00000251  00000+0 -72230-3 0  9998
2 48054  87.9028  16.6770 0001580  87.4389 272.6921 13.13470954216316
ONEWEB-0157             
1 48055U 21025P   25248.85892666 -.00000234  00000+0 -67465-3 0  9994
2 48055  87.9022  16.6957 0001776 113.4297 246.7019 13.13469976216247
ONEWEB-0162             
1 48056U 21025Q   25248.83509350 -.00000253  00000+0 -72874-3 0  9999
2 48056  87.9030  16.6998 0001766  99.8338 260.2990 13.13469210216211
ONEWEB-0155             
1 48057U 21025R   25248.91817361 -.00000436  00000+0 -12289-2 0  9999
2 48057  87.9022  16.6904 0001569 102.2950 257.8355 13.13469721216360
ONEWEB-0149             
1 48058U 21025S   25248.86401022 -.00000101  00000+0 -31080-3 0  9997
2 48058  87.9024  16.6957 0001935  99.3172 260.8176 13.13470655216161
ONEWEB-0148             
1 48059U 21025T   25248.90294558 -.00000086  00000+0 -27045-3 0  9995
2 48059  87.9021  16.7123 0002319 106.8912 253.2472 13.13469506216290
ONEWEB-0160             
1 48060U 21025U   25248.91986793 -.00000424  00000+0 -11968-2 0  9999
2 48060  87.9021  16.7063 0001864  72.6473 287.4860 13.13470593216244
ONEWEB-0163             
1 48061U 21025V   25248.90463581 -.00000085  00000+0 -26789-3 0  9995
2 48061  87.9024  16.6896 0001706 109.6150 250.5163 13.13469232216367
ONEWEB-0159             
1 48062U 21025W   25248.89617016  .00000118  00000+0  28793-3 0  9990
2 48062  87.9026  16.6736 0001806 106.0109 254.1220 13.13469492216282
ONEWEB-0164             
1 48063U 21025X   25248.87755296  .00000182  00000+0  46440-3 0  9992
2 48063  87.9024  16.6864 0001671  95.0357 265.0963 13.13469929216263
ONEWEB-0167             
1 48064U 21025Y   25248.90547011 -.00000125  00000+0 -37838-3 0  9991
2 48064  87.9021  16.7150 0001075 119.4069 240.7168 13.13468333216253
ONEWEB-0166             
1 48065U 21025Z   25248.85215242 -.00000338  00000+0 -96184-3 0  9999
2 48065  87.9022  16.6755 0001911 101.6142 258.5202 13.13469787216327
ONEWEB-0151             
1 48066U 21025AA  25248.85385009 -.00000311  00000+0 -88691-3 0  9994
2 48066  87.9025  16.7002 0001582  99.3222 260.8087 13.13470467216260
ONEWEB-0170             
1 48067U 21025AB  25248.86231047 -.00000146  00000+0 -43504-3 0  9998
2 48067  87.9027  16.7048 0001423  84.5305 275.5987 13.13469568216223
ONEWEB-0168             
1 48068U 21025AC  25248.92324875 -.00000407  00000+0 -11495-2 0  9991
2 48068  87.9025  16.6738 0001725 104.5461 255.5859 13.13470301216243
ONEWEB-0173             
1 48069U 21025AD  25248.91478755 -.00000368  00000+0 -10425-2 0  9996
2 48069  87.9026  16.6835 0001538 113.2070 246.9222 13.13470083216489
ONEWEB-0171             
1 48070U 21025AE  25248.87586332  .00000107  00000+0  25857-3 0  9999
2 48070  87.9021  16.7283 0001600  98.4378 261.6932 13.13470535216292
ONEWEB-0172             
1 48071U 21025AF  25248.85553347 -.00000299  00000+0 -85272-3 0  9999
2 48071  87.9027  16.6999 0001606 101.7587 258.3722 13.13469634217185
ONEWEB-0174             
1 48072U 21025AG  25248.83691883 -.00000226  00000+0 -65480-3 0  9995
2 48072  87.9022  16.7156 0001811 101.1828 258.9505 13.13471512216505
ONEWEB-0175             
1 48073U 21025AH  25248.86739529  .00000025  00000+0  32618-4 0  9992
2 48073  87.9023  16.6748 0001382  94.9973 265.1314 13.13470647216164
ONEWEB-0177             
1 48074U 21025AJ  25248.87923940  .00000218  00000+0  56249-3 0  9995
2 48074  87.9028  16.6889 0001764 104.7150 255.4175 13.13470221216353
ONEWEB-0178             
1 48075U 21025AK  25248.89799243  .00000029  00000+0  44376-4 0  9994
2 48075  87.9029  16.7312 0001466 104.2544 255.8748 13.13469378216405
ONEWEB-0108             
1 48076U 21025AL  25248.85723416 -.00000219  00000+0 -63574-3 0  9993
2 48076  87.9022  16.6858 0001916  94.4766 265.6582 13.13470287216326
ONEWEB-0169             
1 48077U 21025AM  25248.88939759  .00000210  00000+0  54026-3 0  9997
2 48077  87.9026  16.7023 0001913  94.8050 265.3298 13.13469858214986
ONEWEB-0176             
1 48210U 21031A   25248.80295495  .00000153  00000+0  37893-3 0  9996
2 48210  87.9086 346.3153 0001646 101.2535 258.8780 13.14503247210959
ONEWEB-0184             
1 48211U 21031B   25248.69986839 -.00000126  00000+0 -37417-3 0  9997
2 48211  87.9097 346.3069 0000940 105.0308 255.0926 13.14503351210917
ONEWEB-0179             
1 48212U 21031C   25248.82275811 -.00000171  00000+0 -49608-3 0  9999
2 48212  87.9091 346.2985 0001856 103.4313 256.7024 13.14502032210971
ONEWEB-0180             
1 48213U 21031D   25248.70304588 -.00000060  00000+0 -19584-3 0  9998
2 48213  87.9097 346.3118 0001737 110.2501 249.8816 13.14504171210844
ONEWEB-0218             
1 48214U 21031E   25248.80136468  .00000345  00000+0  89622-3 0  9994
2 48214  87.9098 346.2931 0000996 120.0008 240.1221 13.14502055211018
ONEWEB-0209             
1 48215U 21031F   25248.71416126 -.00001258  00000+0 -34284-2 0  9996
2 48215  87.9093 346.3546 0001801 105.3512 254.7817 13.14492462211000
ONEWEB-0198             
1 48216U 21031G   25248.69832974 -.00002999  00000+0 -81285-2 0  9993
2 48216  87.9091 346.3572 0001582 114.1344 245.9952 13.14476454211112
ONEWEB-0189             
1 48217U 21031H   25248.71097188  .00000144  00000+0  35304-3 0  9997
2 48217  87.9086 346.3281 0001763 109.7460 250.3860 13.14504128210852
ONEWEB-0196             
1 48218U 21031J   25248.84100806 -.00000285  00000+0 -80229-3 0  9998
2 48218  87.9091 346.3168 0001786 104.8322 255.3005 13.14503029210878
ONEWEB-0183             
1 48219U 21031K   25248.81563296 -.00000047  00000+0 -16044-3 0  9992
2 48219  87.9088 346.3318 0002016 100.4039 259.7318 13.14501780210963
ONEWEB-0185             
1 48220U 21031L   25248.76567204 -.00000254  00000+0 -72062-3 0  9993
2 48220  87.9095 346.3084 0002173 108.4585 251.6782 13.14503641210886
ONEWEB-0187             
1 48221U 21031M   25248.82184441 -.00000156  00000+0 -45591-3 0  9997
2 48221  87.9093 346.3429 0001925 110.0363 250.0974 13.14502287210909
ONEWEB-0192             
1 48222U 21031N   25248.71573080  .00000147  00000+0  36140-3 0  9995
2 48222  87.9093 346.3580 0001758 102.0290 258.1037 13.14503029210805
ONEWEB-0219             
1 48223U 21031P   25248.69511353 -.00000141  00000+0 -41466-3 0  9991
2 48223  87.9087 346.3347 0001983 108.3118 251.8228 13.14502761211005
ONEWEB-0202             
1 48224U 21031Q   25248.82831726 -.00000241  00000+0 -68371-3 0  9991
2 48224  87.9090 346.3220 0001284 121.6883 238.4372 13.14503002211001
ONEWEB-0204             
1 48225U 21031R   25248.71017891  .00000078  00000+0  17727-3 0  9994
2 48225  87.9080 346.3362 0002121  98.3608 261.7762 13.14503487210888
ONEWEB-0205             
1 48226U 21031S   25248.83783111 -.00000268  00000+0 -75690-3 0  9999
2 48226  87.9086 346.3014 0001894 106.4925 253.6413 13.14502999210912
ONEWEB-0206             
1 48227U 21031T   25248.81087976  .00000037  00000+0  66349-4 0  9998
2 48227  87.9096 346.2887 0001861 101.2209 258.9130 13.14502733210867
ONEWEB-0182             
1 48228U 21031U   25248.80612266  .00000121  00000+0  29164-3 0  9991
2 48228  87.9092 346.3334 0002048 100.0597 260.0764 13.14502691211071
ONEWEB-0186             
1 48229U 21031V   25248.81722448 -.00000044  00000+0 -15246-3 0  9999
2 48229  87.9097 346.2933 0001817 103.4081 256.7252 13.14502809211029
ONEWEB-0181             
1 48230U 21031W   25248.79501543  .00001032  00000+0  27479-2 0  9995
2 48230  87.9085 346.3695 0001696 104.9558 255.1759 13.14498198210876
ONEWEB-0188             
1 48231U 21031X   25248.83307225 -.00000167  00000+0 -48620-3 0  9994
2 48231  87.9091 346.3535 0001863 101.5477 258.5862 13.14502657210784
ONEWEB-0220             
1 48232U 21031Y   25248.72048692  .00000189  00000+0  47500-3 0  9991
2 48232  87.9093 346.3147 0001964 106.7984 253.3361 13.14503154211037
ONEWEB-0165             
1 48233U 21031Z   25248.82513376 -.00000220  00000+0 -62669-3 0  9990
2 48233  87.9077 346.3355 0001813 106.7140 253.4189 13.14502010211004
ONEWEB-0199             
1 48234U 21031AA  25248.80929248  .00000128  00000+0  31091-3 0  9998
2 48234  87.9088 346.3041 0001756  94.6988 265.4342 13.14502736210907
ONEWEB-0203             
1 48235U 21031AB  25248.79976978  .00000240  00000+0  61290-3 0  9998
2 48235  87.9086 346.3074 0001521  97.5728 262.5575 13.14504378210917
ONEWEB-0197             
1 48236U 21031AC  25248.69815267 -.00004594  00000+0 -12429-1 0  9997
2 48236  87.9086 346.3260 0002239  98.4291 261.7093 13.14523899210811
ONEWEB-0194             
1 48237U 21031AD  25248.82990283 -.00000252  00000+0 -71295-3 0  9990
2 48237  87.9090 346.3132 0001704  92.5041 267.6284 13.14503512211008
ONEWEB-0193             
1 48238U 21031AE  25248.76965185 -.00000226  00000+0 -64501-3 0  9990
2 48238  87.9075 346.3282 0001736  85.8766 274.2562 13.14503208210949
ONEWEB-0191             
1 48239U 21031AF  25248.70462966 -.00000089  00000+0 -27504-3 0  9993
2 48239  87.9096 346.3168 0001849  98.4520 261.6819 13.14504608210792
ONEWEB-0195             
1 48240U 21031AG  25248.83385465 -.00000160  00000+0 -46576-3 0  9997
2 48240  87.9096 346.2881 0001617 112.8624 247.2676 13.14504270210790
ONEWEB-0201             
1 48241U 21031AH  25248.82210468 -.00000172  00000+0 -49806-3 0  9999
2 48241  87.9100 346.3397 0002024 108.2492 251.8859 13.14504568211026
ONEWEB-0207             
1 48242U 21031AJ  25248.80214566  .00000091  00000+0  20993-3 0  9995
2 48242  87.9089 346.3026 0002013 103.0266 257.1089 13.14501681210938
